DELTA 2 R/B(1)          
1 20453U 90008B   25344.48943755  .00055264  00000+0  89165-3 0  9997
2 20453  35.6071  35.0632 0111567 158.0511 202.5051 15.44941499912286
COSMOS 2058             
1 20465U 90010A   25344.50554212  .00007509  00000+0  45474-3 0  9996
2 20465  82.4658 135.2279 0008245 282.6120  77.4188 15.10434430928774
SL-14 R/B               
1 20466U 90010B   25344.45210366  .00000719  00000+0  84491-4 0  9999
2 20466  82.5019 351.1957 0018574 231.1684 128.7874 14.83467962915255
SL-14 R/B               
1 20511U 90018B   25344.38414210  .00000857  00000+0  10482-3 0  9995
2 20511  82.5208 306.5662 0017196  30.7885 329.4334 14.82042726909359
HST                     
1 20580U 90037B   25344.17960443  .00010729  00000+0  37347-3 0  9991
2 20580  28.4692 289.9149 0001836 207.5620 152.4878 15.27993349759604
SL-16 R/B               
1 20625U 90046B   25344.48375268  .00000021  00000+0  35573-4 0  9994
2 20625  70.9989 125.2589 0011837  77.4448 282.7997 14.15001299835771
COSMOS 2084             
1 20663U 90055A   25344.24253725  .00004821  00000+0  34840-3 0  9990
2 20663  62.7910 280.5019 0032144 174.4033 185.7433 15.04993653922857
SL-6 R/B(2)             
1 20666U 90055D   25344.57188793  .00003013  00000+0  23665-3 0  9996
2 20666  62.7824 196.7819 0012492 307.2194  52.7764 15.03060432924792
SL-8 R/B                
1 20775U 90078B   25344.50886344  .00030976  00000+0  95860-3 0  9996
2 20775  82.9052 331.3069 0372844 313.4270  43.6462 14.85795608796046
SL-8 R/B                
1 21088U 91006B   25344.63383296  .00000084  00000+0  69683-4 0  9990
2 21088  82.9430 236.2792 0021277 286.1136  82.9222 13.77489629751817
OKEAN-3                 
1 21397U 91039A   25344.55333076  .00005092  00000+0  36521-3 0  9999
2 21397  82.5167  63.1633 0012809 274.6172  85.3591 15.04093187851636
COSMOS 2151             
1 21422U 91042A   25344.62154178  .00002611  00000+0  20938-3 0  9993
2 21422  82.4961 169.5447 0012727   6.8362 353.3033 14.99674814849849
